EUTELSAT 16A            
1 37836U 11057A   25200.93308890  .00000107  00000+0  00000+0 0  9996
2 37836   0.0635  11.5475 0005350 107.7662 170.5381  1.00272318  3998
EUTELSAT 21B            
1 38992U 12062B   25200.95280353  .00000133  00000+0  00000+0 0  9991
2 38992   0.0661  11.3542 0002984 108.7685 182.4458  1.00272969 46491
EUTELSAT 70B            
1 39020U 12069A   25200.85559825 -.00000040  00000+0  00000+0 0  9991
2 39020   0.0620  13.9321 0003558 104.4302 198.0154  1.00271579 46176
EUTELSAT 117 WEST A     
1 39122U 13012A   25201.18773525 -.00000011  00000+0  00000+0 0  9993
2 39122   0.0097 355.6135 0002828 133.2541 120.1096  1.00271554 45139
EUTELSAT 7B             
1 39163U 13022A   25200.84296637  .00000051  00000+0  00000+0 0  9998
2 39163   0.0694 341.9540 0003114  65.0743 201.2982  1.00269917 44628
EXPRESS-AT1             
1 39612U 14010A   25201.13826035  .00000080  00000+0  00000+0 0  9991
2 39612   0.0226  48.6865 0000286 242.6085 112.6481  1.00272525 41724
EXPRESS-AT2             
1 39613U 14010B   25200.86937832 -.00000278  00000+0  00000+0 0  9999
2 39613   0.0139   8.0159 0000219  12.8203   9.8796  1.00270971 41559
EUTELSAT 3B             
1 39773U 14030A   25200.93864363  .00000022  00000+0  00000+0 0  9990
2 39773   0.0607  13.7649 0003878 116.1908 149.0009  1.00271584 40731
